{"type":"FeatureCollection","features":[{"type":"Feature","geometry":{"type":"Point","coordinates":[-6.148293527,52.936999623]},"properties":{"id":"WI02239","smrs":"WI030-014002-","county":"WICKLOW","townland":"KILMANOGE","class_code":"HOWE","monument_type":"Ritual site - holy well","first_edit":"Not indicated","latest_edit":"Not indicated","source_link":"https://maps.archaeology.ie/HistoricEnvironment/?SMRS=WI030-014002-","notes":"The OS Letters noted (O'Flanagan 1928, 127) a triangular enclosure (diam. 18.6m) with a well in NE angle, and part of a millstone or quern. No visible trace noted when inspected by ASI in 1990.  The above description is derived from the published 'Archae"}},{"type":"Feature","geometry":{"type":"Point","coordinates":[-6.141381265,53.141735156]},"properties":{"id":"WI00334","smrs":"WI007-056----","county":"WICKLOW","townland":"CALARY LOWER","class_code":"HOWE","monument_type":"Ritual site - holy well","first_edit":"","latest_edit":"","source_link":"https://maps.archaeology.ie/HistoricEnvironment/?SMRS=WI007-056----","notes":"Known as 'Bride's Well' and patrons were held here up until the late 1700's (Price 1957, 316).   Compiled by: Claire Breen  Date of upload: 01 February 2013"}},{"type":"Feature","geometry":{"type":"Point","coordinates":[-6.665596981,52.996021893]},"properties":{"id":"WI00932","smrs":"WI021-014----","county":"WICKLOW","townland":"WINETAVERN","class_code":"HOWE","monument_type":"Ritual site - holy well","first_edit":"","latest_edit":"'Tobermurry'","source_link":"https://maps.archaeology.ie/HistoricEnvironment/?SMRS=WI021-014----","notes":"Situated on the NW side of a small narrow valley. Loosely set stones form a circle (diam. 6m) around the original location of the well which is now diverted into a field ditch. No surviving local traditions. The map name means 'tobar Mhuire' indicating a"}},{"type":"Feature","geometry":{"type":"Point","coordinates":[-6.654897389,52.997087758]},"properties":{"id":"WI00933","smrs":"WI021-015----","county":"WICKLOW","townland":"RANDALSTOWN","class_code":"HOWE","monument_type":"Ritual site - holy well","first_edit":"","latest_edit":"'Toberavoster'","source_link":"https://maps.archaeology.ie/HistoricEnvironment/?SMRS=WI021-015----","notes":"Situated at a break in a SE-facing slope. A spring which is now tapped into a disused stand pipe. The OS Letters (O'Flanagan 1928, 59) state that the well was formerly famous for its curative powers. No surviving local traditions.  The above description"}},{"type":"Feature","geometry":{"type":"Point","coordinates":[-6.461637105,52.85629508]},"properties":{"id":"WI01491","smrs":"WI033-021----","county":"WICKLOW","townland":"SLIEVEROE (Ballinacor South By.)","class_code":"HOWE","monument_type":"Ritual site - holy well","first_edit":"","latest_edit":"'St. Columbkille's Well'","source_link":"https://maps.archaeology.ie/HistoricEnvironment/?SMRS=WI033-021----","notes":"Situated by the side of the road on a marked W-facing slope. A spring contained within a square basin lined with slabs, roofed with a slab and approached by a step. The well is known locally as having a cure for warts. A pattern was held here on the 9th"}},{"type":"Feature","geometry":{"type":"Point","coordinates":[-6.080799524,52.916647165]},"properties":{"id":"WI01444","smrs":"WI031-026----","county":"WICKLOW","townland":"DUNGANSTOWN EAST","class_code":"HOWE","monument_type":"Ritual site - holy well","first_edit":"","latest_edit":"Not indicated","source_link":"https://maps.archaeology.ie/HistoricEnvironment/?SMRS=WI031-026----","notes":"Situated on a gentle SW-facing slope. The well is contained within a concrete shore and covered by a manhole. It is named on the 1838 OS 6-inch map as 'St Kevin's Well'. The OS Letters state that a pattern was held here on the 24th of June until 1798. Af"}},{"type":"Feature","geometry":{"type":"Point","coordinates":[-6.351092992,52.809714791]},"properties":{"id":"WI01738","smrs":"WI039-023----","county":"WICKLOW","townland":"TOBERLOWNAGH","class_code":"HOWE","monument_type":"Ritual site - holy well","first_edit":"'Toberlownagh'","latest_edit":"'Toberlownagh'","source_link":"https://maps.archaeology.ie/HistoricEnvironment/?SMRS=WI039-023----","notes":"Unenclosed spring situated on a steep rocky W-facing slope. The name means 'well of new milk' (leamhnacht), and may refer to a tradition associated with some wells around the country, that the well gave milk during the Famine. However, the name Tibberlan"}},{"type":"Feature","geometry":{"type":"Point","coordinates":[-6.472035654,53.201193221]},"properties":{"id":"WI00020","smrs":"WI001-020----","county":"WICKLOW","townland":"KILBRIDE (Talbotstown Lower By.)","class_code":"HOWE","monument_type":"Ritual site - holy well","first_edit":"'St. Kevin's Well'","latest_edit":"'St. Kevin's Well'","source_link":"https://maps.archaeology.ie/HistoricEnvironment/?SMRS=WI001-020----","notes":"Situated on a steep E/SE-facing slope. An unmarked spring, in an area with several other small springs.  The above description is derived from the published 'Archaeological Inventory of County Wicklow' (Dublin: Stationery Office, 1997). In certain instan"}},{"type":"Feature","geometry":{"type":"Point","coordinates":[-6.471245166,53.201533614]},"properties":{"id":"WI00023","smrs":"WI001-021----","county":"WICKLOW","townland":"KILBRIDE (Talbotstown Lower By.)","class_code":"HOWE","monument_type":"Ritual site - holy well","first_edit":"Not indicated","latest_edit":"'St. Bridget's Well'","source_link":"https://maps.archaeology.ie/HistoricEnvironment/?SMRS=WI001-021----","notes":"Situated on a gentle E-facing slope in an area with several other small springs. No visible remains.  The above description is derived from the published 'Archaeological Inventory of County Wicklow' (Dublin: Stationery Office, 1997). In certain instances"}},{"type":"Feature","geometry":{"type":"Point","coordinates":[-6.179068937,53.212679219]},"properties":{"id":"WI00063","smrs":"WI003-010----","county":"WICKLOW","townland":"KILLEGAR","class_code":"HOWE","monument_type":"Ritual site - holy well","first_edit":"'Church Well'","latest_edit":"'Church Well'","source_link":"https://maps.archaeology.ie/HistoricEnvironment/?SMRS=WI003-010----","notes":"Situated on a marked E-facing slope overlooking the very steep W side of the Scalp. The OS Letters (O'Flanagan 1928, 2) state that there was a local memory of a pattern at the well, and that there was an 'ancient thorn' growing over it. No visible remain"}},{"type":"Feature","geometry":{"type":"Point","coordinates":[-6.174115834,53.199579183]},"properties":{"id":"WI00098","smrs":"WI003-031001-","county":"WICKLOW","townland":"MONASTERY","class_code":"HOWE","monument_type":"Ritual site - holy well","first_edit":"'Well'","latest_edit":"'Well (Site of)'","source_link":"https://maps.archaeology.ie/HistoricEnvironment/?SMRS=WI003-031001-","notes":"To the S of the monastery site (WI003-031002-), a small spring now enclosed in a brick and cement trough, may be the well marked on the map. The OS Letters (O'Flanagan 1928, 3) mention that the well was visited for headache cures.  The above description"}},{"type":"Feature","geometry":{"type":"Point","coordinates":[-6.522723179,53.17975798]},"properties":{"id":"WI00143","smrs":"WI005-024----","county":"WICKLOW","townland":"HOLYVALLEY","class_code":"HOWE","monument_type":"Ritual site - holy well","first_edit":"","latest_edit":"'Holyvalley Well'","source_link":"https://maps.archaeology.ie/HistoricEnvironment/?SMRS=WI005-024----","notes":"Situated at the foot of a gentle SE-facing slope. Natural spring housed in a modern pumphouse.   The above description is derived from the published 'Archaeological Inventory of County Wicklow' (Dublin: Stationery Office, 1997). In certain instances the"}},{"type":"Feature","geometry":{"type":"Point","coordinates":[-6.525553879,53.170508427]},"properties":{"id":"WI00145","smrs":"WI005-026----","county":"WICKLOW","townland":"BLESSINGTON","class_code":"HOWE","monument_type":"Ritual site - holy well","first_edit":"'Toberanbrick'","latest_edit":"'Toberanbrick'","source_link":"https://maps.archaeology.ie/HistoricEnvironment/?SMRS=WI005-026----","notes":"Now covered by Blessington Reservoir. The name refers to a trout (Tobar an Bhric) which was said to live in the well. According to the OS Name Books invalids drank from the well and left rags on the surrounding bushes.  The above description is derived f"}},{"type":"Feature","geometry":{"type":"Point","coordinates":[-6.502498481,53.177959483]},"properties":{"id":"WI00147","smrs":"WI005-028----","county":"WICKLOW","townland":"CROSSCOOLHARBOUR","class_code":"HOWE","monument_type":"Ritual site - holy well","first_edit":"","latest_edit":"'Scurlock's Holy Well'","source_link":"https://maps.archaeology.ie/HistoricEnvironment/?SMRS=WI005-028----","notes":"Situated c. 90m E of Scurlock's Graveyard (WI005-027001-) on a gentle SE-facing slope c. 35m from the shore of the Blessington Reservoir. A spring feeding into a natural gully.  The above description is derived from the published 'Archaeological Inventor"}},{"type":"Feature","geometry":{"type":"Point","coordinates":[-6.541390821,53.153410477]},"properties":{"id":"WI00197","smrs":"WI005-070003-","county":"WICKLOW","townland":"BURGAGE MORE","class_code":"HOWE","monument_type":"Ritual site - holy well","first_edit":"","latest_edit":"'Holy Well'","source_link":"https://maps.archaeology.ie/HistoricEnvironment/?SMRS=WI005-070003-","notes":"Situated to the W of Burgage More castle (WI005-070004-). Described in the OS Letters (O'Flanagan 1928, 105) as a spring well at the foot of St Mark's Cross (WI005-047001-) dedicated to St Mark or St Baoithin. It could not be located and is probably near"}},{"type":"Feature","geometry":{"type":"Point","coordinates":[-6.201390899,53.120131738]},"properties":{"id":"WI00532","smrs":"WI012-018----","county":"WICKLOW","townland":"GLASNAMULLEN","class_code":"HOWE","monument_type":"Ritual site - holy well","first_edit":"","latest_edit":"'St. Kevin's Well'","source_link":"https://maps.archaeology.ie/HistoricEnvironment/?SMRS=WI012-018----","notes":"Situated on the N side of a stream at the foot of a steep bank. Rough oval hollow (dims. 2m x 1.5m) defined on three sides by loose stones and small boulders. The hollow is now dry. The OS Letters (O'Flanagan 1928, 69) mention the tradition of tying rags"}},{"type":"Feature","geometry":{"type":"Point","coordinates":[-6.195954723,53.193889688]},"properties":{"id":"WI00284","smrs":"WI007-016----","county":"WICKLOW","townland":"POWERSCOURT DEMESNE","class_code":"HOWE","monument_type":"Ritual site - holy well","first_edit":"","latest_edit":"'St. Moling's Well'","source_link":"https://maps.archaeology.ie/HistoricEnvironment/?SMRS=WI007-016----","notes":"Situated in a wet area at the SE foot of a steep hillock. Circular shaft (dims. 0.85m x 0.8m; D 1.3m) with a lining of small granite stones. There appears to be a stone base to the shaft. A circular cut slab with one flat and one domed face has been wedg"}},{"type":"Feature","geometry":{"type":"Point","coordinates":[-6.493338223,53.135384249]},"properties":{"id":"WI00466","smrs":"WI010-010----","county":"WICKLOW","townland":"LACKAN","class_code":"HOWE","monument_type":"Ritual site - holy well","first_edit":"","latest_edit":"'St. Boodin's Well'","source_link":"https://maps.archaeology.ie/HistoricEnvironment/?SMRS=WI010-010----","notes":"Situated c. 600m W of Templeboodin Church (WI010-011001-) and now covered by Blessington Reservoir. Omurethi (1906, 203) mentions that the water was used for drinking and for rubbing on sore limbs, and that small stones near the well were rubbed on teeth"}},{"type":"Feature","geometry":{"type":"Point","coordinates":[-6.466591036,53.137739199]},"properties":{"id":"WI00475","smrs":"WI010-015----","county":"WICKLOW","townland":"KILBEG","class_code":"HOWE","monument_type":"Ritual site - holy well","first_edit":"","latest_edit":"'St. Boodins Well'","source_link":"https://maps.archaeology.ie/HistoricEnvironment/?SMRS=WI010-015----","notes":"Situated on a marked S-facing slope overlooking the valley of a mountain stream. A spring which is now diverted into a field drain. The site is marked by a small level platform (dims. c. 8m x 7m) with wall collapse along the edges especially on the W sid"}},{"type":"Feature","geometry":{"type":"Point","coordinates":[-6.085674309,53.109634778]},"properties":{"id":"WI00618","smrs":"WI013-027----","county":"WICKLOW","townland":"KILQUADE","class_code":"HOWE","monument_type":"Ritual site - holy well","first_edit":"","latest_edit":"'St. Patrick's Well (Site of)'","source_link":"https://maps.archaeology.ie/HistoricEnvironment/?SMRS=WI013-027----","notes":"Situated in a level marshy area which has been drained and reclaimed. No visible remains.  The above description is derived from the published 'Archaeological Inventory of County Wicklow' (Dublin: Stationery Office, 1997). In certain instances the entrie"}},{"type":"Feature","geometry":{"type":"Point","coordinates":[-6.06007161,53.107961762]},"properties":{"id":"WI00624","smrs":"WI013-030----","county":"WICKLOW","townland":"KILCOOLE","class_code":"HOWE","monument_type":"Ritual site - holy well","first_edit":"Not indicated","latest_edit":"Indicated","source_link":"https://maps.archaeology.ie/HistoricEnvironment/?SMRS=WI013-030----","notes":"Situated on level ground in a marshy area, to the NE of Kilcoole church (WI013-029001-). A natural unmarked spring. The OS Letters (O'Flanagan 1928, 64) mention it but say that it was 'not held in any particular veneration'. The remains of this well were"}},{"type":"Feature","geometry":{"type":"Point","coordinates":[-6.698995375,53.048576707]},"properties":{"id":"WI00703","smrs":"WI015-033----","county":"WICKLOW","townland":"TORNANT LOWER","class_code":"HOWE","monument_type":"Ritual site - holy well","first_edit":"","latest_edit":"'St. Nicholas' Well'","source_link":"https://maps.archaeology.ie/HistoricEnvironment/?SMRS=WI015-033----","notes":"Situated in marshy ground on a gentle N/NW-facing slope. A natural spring recently provided with stone housing. The well is traditionally associated with the baptism of children and the pattern days were on the 24th to the 26th of June (OS Name Books)."}},{"type":"Feature","geometry":{"type":"Point","coordinates":[-6.585912564,53.053856498]},"properties":{"id":"WI00698","smrs":"WI015-029003-","county":"WICKLOW","townland":"BALLYMOONEY","class_code":"HOWE","monument_type":"Ritual site - holy well","first_edit":"","latest_edit":"Not indicated","source_link":"https://maps.archaeology.ie/HistoricEnvironment/?SMRS=WI015-029003-","notes":"Situated on the summit of Church Mountain. Circular shaft (D 1.8-2m) excavated through the body of a cairn (WI015-029002-). Known locally 'St Gad's Well', it occurs on the W side of an enclosure constructed from the hollowed interior of the cairn which a"}},{"type":"Feature","geometry":{"type":"Point","coordinates":[-6.094559149,53.078280988]},"properties":{"id":"WI00833","smrs":"WI019-002----","county":"WICKLOW","townland":"KILLADREENAN","class_code":"HOWE","monument_type":"Ritual site - holy well","first_edit":"'St. Catherine's Well'","latest_edit":"'St. Catherine's Well (site of)'","source_link":"https://maps.archaeology.ie/HistoricEnvironment/?SMRS=WI019-002----","notes":"Situated 150m east of St Catherine's church (WI019-001----). A well dedicated to St Catherine, and probably destroyed by the new bypass.  According to Lynch (1994, 641)  a 'whitethorn had marked the well but was cut down before the 1930s.  The well had b"}},{"type":"Feature","geometry":{"type":"Point","coordinates":[-6.094130488,53.0514877]},"properties":{"id":"WI00855","smrs":"WI019-015----","county":"WICKLOW","townland":"KILTIMON","class_code":"HOWE","monument_type":"Ritual site - holy well","first_edit":"'St. Patrick's Well'","latest_edit":"'St. Patrick's Well'","source_link":"https://maps.archaeology.ie/HistoricEnvironment/?SMRS=WI019-015----","notes":"Slab covered well in the centre of a farmyard. The Ordnance Survey Letters of 1838-40 (O'Flanagan 1928, 95-6) recorded  that 'a well now closed up, but formerly much frequented under the name of Tubber Patrick or Patrick's Well; this well is in Mr. Gorma"}},{"type":"Feature","geometry":{"type":"Point","coordinates":[-6.107049559,53.02833226]},"properties":{"id":"WI00863","smrs":"WI019-020----","county":"WICKLOW","townland":"NEWTOWNBOSWELL","class_code":"HOWE","monument_type":"Ritual site - holy well","first_edit":"","latest_edit":"'Trinity Well'","source_link":"https://maps.archaeology.ie/HistoricEnvironment/?SMRS=WI019-020----","notes":"Situated in a hollow on a marked SE-facing slope, 160m NW of 'Trinity' (Ballyhenry) graveyard (WI019-021001-). Natural spring marked by some loose boulders and a modern wooden cross. The pattern day was held on Trinity Sunday (the first Sunday after Whit"}},{"type":"Feature","geometry":{"type":"Point","coordinates":[-6.726278692,52.969516478]},"properties":{"id":"WI00904","smrs":"WI020-019----","county":"WICKLOW","townland":"RAMPERE","class_code":"HOWE","monument_type":"Ritual site - holy well","first_edit":"","latest_edit":"'St. Bernard's Well'","source_link":"https://maps.archaeology.ie/HistoricEnvironment/?SMRS=WI020-019----","notes":"Situated on level, low-lying swampy ground with higher ground to the N, W and S and a gentle downhill slope to the E; 250m NE of Rampere chapel site (WI020-018----). Strong spring now contained within a concrete shaft. The Patron day was on the 20th of A"}},{"type":"Feature","geometry":{"type":"Point","coordinates":[-6.721297912,52.975341223]},"properties":{"id":"WI00905","smrs":"WI020-020----","county":"WICKLOW","townland":"LOWTOWN","class_code":"HOWE","monument_type":"Ritual site - holy well","first_edit":"","latest_edit":"'Tobernagoagh'","source_link":"https://maps.archaeology.ie/HistoricEnvironment/?SMRS=WI020-020----","notes":"Situated in a very marshy area and visible only as a wetter area within this. A spring which according to the OS Name Books was believed locally to have had curative powers. The name possibly means 'well of the cuckoo' (tobar na gcuach).  The above descr"}},{"type":"Feature","geometry":{"type":"Point","coordinates":[-6.614791616,52.991072558]},"properties":{"id":"WI00953","smrs":"WI021-035----","county":"WICKLOW","townland":"KELSHAMORE","class_code":"HOWE","monument_type":"Ritual site - holy well","first_edit":"","latest_edit":"'Tobernacargy'","source_link":"https://maps.archaeology.ie/HistoricEnvironment/?SMRS=WI021-035----","notes":"Situated on a marked S-facing slope in rocky terrain. Natural spring with no associated features still regarded locally as a holy well. The name means 'well of the rocks' (tobar na carraige) (Price 1949, 173).  The above description is derived from the p"}},{"type":"Feature","geometry":{"type":"Point","coordinates":[-6.538425258,52.989627915]},"properties":{"id":"WI01018","smrs":"WI022-011002-","county":"WICKLOW","townland":"LEITRIM","class_code":"HOWE","monument_type":"Ritual site - holy well","first_edit":"","latest_edit":"'Grave Yard, Leitrim Well (Site of)'","source_link":"https://maps.archaeology.ie/HistoricEnvironment/?SMRS=WI022-011002-","notes":"Situated on the N edge of Leitrim graveyard (WI022-011004-). The site of a holy well which had a pattern on St James' Day, the 25th of July (OS Name Books). No visible remains.  The above description is derived from the published 'Archaeological Inventor"}},{"type":"Feature","geometry":{"type":"Point","coordinates":[-6.32264112,53.009043542]},"properties":{"id":"WI01085","smrs":"WI023-016----","county":"WICKLOW","townland":"DERRYBAWN","class_code":"HOWE","monument_type":"Ritual site - holy well","first_edit":"","latest_edit":"'St. Kevin's Well'","source_link":"https://maps.archaeology.ie/HistoricEnvironment/?SMRS=WI023-016----","notes":"Situated 15m S of the river some 200m E of the main monastic complex. Spring in a stone-lined shaft (D 2m; diam. 1.2m) surrounded by a C-shaped bank (H 0.7m; diam. 1.5m). (OS Name Books)  The above description is derived from the published 'Archaeologica"}},{"type":"Feature","geometry":{"type":"Point","coordinates":[-6.179481454,52.981553503]},"properties":{"id":"WI01132","smrs":"WI024-010----","county":"WICKLOW","townland":"BALLYMANUS UPPER","class_code":"HOWE","monument_type":"Ritual site - holy well","first_edit":"'Lady's Well'","latest_edit":"Not indicated","source_link":"https://maps.archaeology.ie/HistoricEnvironment/?SMRS=WI024-010----","notes":"Situated on  W-facing slope in a mature forestry plantation. Holy well in the parish of Glenealy that was annotated 'Lady's Well' on the 1838 ed. OS 6-inch map.  On this map a farmhouse now gone was shown 40m to the SSE of 'Lady's Well'.  The holy well l"}},{"type":"Feature","geometry":{"type":"Point","coordinates":[-6.744911486,52.955369677]},"properties":{"id":"WI01193","smrs":"WI026-003----","county":"WICKLOW","townland":"KNOCKANREAGH","class_code":"HOWE","monument_type":"Ritual site - holy well","first_edit":"","latest_edit":"'Tobersool'","source_link":"https://maps.archaeology.ie/HistoricEnvironment/?SMRS=WI026-003----","notes":"Situated in a hollow at the base of an E-facing slope. Natural unmarked spring with no surviving local traditions.  The above description is derived from the published 'Archaeological Inventory of County Wicklow' (Dublin: Stationery Office, 1997). In cer"}},{"type":"Feature","geometry":{"type":"Point","coordinates":[-6.010608786,52.97206013]},"properties":{"id":"WI01170","smrs":"WI025-016----","county":"WICKLOW","townland":"DUNBUR HEAD","class_code":"HOWE","monument_type":"Ritual site - holy well","first_edit":"","latest_edit":"'Bride's Well'","source_link":"https://maps.archaeology.ie/HistoricEnvironment/?SMRS=WI025-016----","notes":"Situated in a low cliff overlooking the sea-cliff to the E. Described in OS Name Books as a natural spring just above the high water mark. Now dried up; there is no surviving local tradition.  According to Lynch (1994, 638) this well was described in the"}},{"type":"Feature","geometry":{"type":"Point","coordinates":[-6.122070242,53.010673819]},"properties":{"id":"WI01175","smrs":"WI025-020----","county":"WICKLOW","townland":"BALLYMACAHARA","class_code":"HOWE","monument_type":"Ritual site - holy well","first_edit":"Not indicated","latest_edit":"Outlined","source_link":"https://maps.archaeology.ie/HistoricEnvironment/?SMRS=WI025-020----","notes":"Recorded in the Ordnance Survey letters of 1838-40 as \u2018in the townland of Ballymacahara they shew a holy well called Tubber Brighde (or Bridget\u2019s Well).  It is a strong spring gushing from the foot of a little bank, having two old ash trees growing o"}},{"type":"Feature","geometry":{"type":"Point","coordinates":[-6.749136022,52.96112166]},"properties":{"id":"WI01191","smrs":"WI026-001----","county":"WICKLOW","townland":"MONATORE","class_code":"HOWE","monument_type":"Ritual site - holy well","first_edit":"'Tobergorey'","latest_edit":"'Tobergorey'","source_link":"https://maps.archaeology.ie/HistoricEnvironment/?SMRS=WI026-001----","notes":"Holy Well annotated as 'Tobergorey' on the various editions of the OS 6-inch maps.  The well is situated in a small natural hollow within a large undulating agricultural field. It is a natural spring which was reputed as having 'been good for various cur"}},{"type":"Feature","geometry":{"type":"Point","coordinates":[-6.729380285,52.965289311]},"properties":{"id":"WI01192","smrs":"WI026-002----","county":"WICKLOW","townland":"TINORANHILL NORTH","class_code":"HOWE","monument_type":"Ritual site - holy well","first_edit":"","latest_edit":"'Tobernasleiga'","source_link":"https://maps.archaeology.ie/HistoricEnvironment/?SMRS=WI026-002----","notes":"Situated on a NE-facing slope near the foot of Tinoran Hill. Natural unmarked spring which was reported in the OS Name Books as having 'been good for various cures'. No surviving local traditions.  The above description is derived from the published 'Arc"}},{"type":"Feature","geometry":{"type":"Point","coordinates":[-6.66047953,52.941379175]},"properties":{"id":"WI01252","smrs":"WI027-028----","county":"WICKLOW","townland":"BOLEY (Talbotstown Upper By.)","class_code":"HOWE","monument_type":"Ritual site - holy well","first_edit":"","latest_edit":"'St. Patrick's Well (Site of)'","source_link":"https://maps.archaeology.ie/HistoricEnvironment/?SMRS=WI027-028----","notes":"Situated about 400m SSE of Coolinarrig graveyard (WI027-027003-). The well has been diverted into a field drain, now marked by an alder tree. According to the OS Name Books the pattern had ceased around 1790.  The above description is derived from the pu"}},{"type":"Feature","geometry":{"type":"Point","coordinates":[-6.625640512,52.952908724]},"properties":{"id":"WI01259","smrs":"WI027-031003-","county":"WICKLOW","townland":"MOORSTOWN (Talbotstown Upper By.)","class_code":"HOWE","monument_type":"Ritual site - holy well","first_edit":"","latest_edit":"'St. Bridget's Well (Site of)'","source_link":"https://maps.archaeology.ie/HistoricEnvironment/?SMRS=WI027-031003-","notes":"Situated on the N bank of a stream in marshy ground, to the E of 'St Bridget's Chair' (WI027-031002-) and 'St Bridget's Head Stone' (WI027-031001-). No visible remains. May have been associated with the ecclesiastical site at Colvinstown Upper (WI027-034"}},{"type":"Feature","geometry":{"type":"Point","coordinates":[-6.632195759,52.945614006]},"properties":{"id":"WI01265","smrs":"WI027-034003-","county":"WICKLOW","townland":"COLVINSTOWN UPPER","class_code":"HOWE","monument_type":"Ritual site - holy well","first_edit":"","latest_edit":"'St. Bridget's Well'","source_link":"https://maps.archaeology.ie/HistoricEnvironment/?SMRS=WI027-034003-","notes":"Situated within a graveyard on the NW slope of Colvinstown hill. An approximately circular pool (dims. c. 1.2m E-W; 0.8m N-S), with a semi-circular corbelled wall at the E. It is now surrounded by a wire fence. Mentioned in OS Name Books that the well wa"}},{"type":"Feature","geometry":{"type":"Point","coordinates":[-6.637425014,52.926942585]},"properties":{"id":"WI01287","smrs":"WI027-050----","county":"WICKLOW","townland":"TALBOTSTOWN LOWER","class_code":"HOWE","monument_type":"Ritual site - holy well","first_edit":"","latest_edit":"'Tobernachristhamaun'","source_link":"https://maps.archaeology.ie/HistoricEnvironment/?SMRS=WI027-050----","notes":"Situated on level to gently sloping ground beside the road. An unmarked spring which according to the OS Name Books was traditionally 'good for various cures'.  The above description is derived from the published 'Archaeological Inventory of County Wickl"}},{"type":"Feature","geometry":{"type":"Point","coordinates":[-6.535123642,52.932673266]},"properties":{"id":"WI01325","smrs":"WI028-005----","county":"WICKLOW","townland":"CORNAN EAST","class_code":"HOWE","monument_type":"Ritual site - holy well","first_edit":"","latest_edit":"'Tobernashankill'","source_link":"https://maps.archaeology.ie/HistoricEnvironment/?SMRS=WI028-005----","notes":"Situated in the bank of a stream 80m SW of a graveyard (WI028-006001-). A small stream feeds a roughly circular stone-lined basin (diam. 1m; D 1.2m) which overflows into a larger stream. The name means 'the well of the old church' (sean chill).  The abov"}},{"type":"Feature","geometry":{"type":"Point","coordinates":[-6.545502705,52.920819305]},"properties":{"id":"WI01334","smrs":"WI028-013----","county":"WICKLOW","townland":"RATHDANGAN","class_code":"HOWE","monument_type":"Ritual site - holy well","first_edit":"","latest_edit":"'Toberowen'","source_link":"https://maps.archaeology.ie/HistoricEnvironment/?SMRS=WI028-013----","notes":"Situated beside a stream at the foot of a slight N-facing slope. Spring in a stone housing, dedicated to St John and still occasionally visited.  The above description is derived from the published 'Archaeological Inventory of County Wicklow' (Dublin: St"}},{"type":"Feature","geometry":{"type":"Point","coordinates":[-6.21028211,52.910147375]},"properties":{"id":"WI01384","smrs":"WI030-019----","county":"WICKLOW","townland":"TICLASH","class_code":"HOWE","monument_type":"Ritual site - holy well","first_edit":"","latest_edit":"'Virgin's Well'","source_link":"https://maps.archaeology.ie/HistoricEnvironment/?SMRS=WI030-019----","notes":"Situated at the foot of a very steep S-facing slope overlooking a stream. Natural spring now piped into a trough. Price (1967, 437) suggests the original name is Tobar Aimheirg\u00edn, rather than a dedication to the Virgin Mary.  The above description is de"}},{"type":"Feature","geometry":{"type":"Point","coordinates":[-6.053042434,52.945643286]},"properties":{"id":"WI01411","smrs":"WI031-005----","county":"WICKLOW","townland":"TOBERAVILLER","class_code":"HOWE","monument_type":"Ritual site - holy well","first_edit":"","latest_edit":"Indicated","source_link":"https://maps.archaeology.ie/HistoricEnvironment/?SMRS=WI031-005----","notes":"Situated in a SW-facing dip on a marked slope in grassland. The well was already neglected in the early 19th century (O'Flanagan 1928, 118). Marked on the 1838 OS 6-inch map as 'Tobervilla', which is defined in the OS Letters as tobar an bhiolair, 'the w"}},{"type":"Feature","geometry":{"type":"Point","coordinates":[-6.029707162,52.945348477]},"properties":{"id":"WI01415","smrs":"WI031-008----","county":"WICKLOW","townland":"KILPOOLE LOWER","class_code":"HOWE","monument_type":"Ritual site - holy well","first_edit":"","latest_edit":"'St. Paul's Well'","source_link":"https://maps.archaeology.ie/HistoricEnvironment/?SMRS=WI031-008----","notes":"Situated in a short SW-facing bank on the E side of a driveway c. 100m to the E of a church site (WI051-007----). Natural spring traditionally associated with the Welsh St Pol (Paul). Remembered locally although not visible at ground level.  The above de"}},{"type":"Feature","geometry":{"type":"Point","coordinates":[-6.284266165,52.906061649]},"properties":{"id":"WI01506","smrs":"WI034-005----","county":"WICKLOW","townland":"BALLYMONEY (Ballinacor South By.)","class_code":"HOWE","monument_type":"Ritual site - holy well","first_edit":"","latest_edit":"'Lady's Well'","source_link":"https://maps.archaeology.ie/HistoricEnvironment/?SMRS=WI034-005----","notes":"Situated in a hollow on an E-facing slope. Natural spring housed in a rectangular drystone surround (dims. 0.95m E-W; 0.7m N-S). There is a small modern shrine with a statue of Our Lady to the W of the well; the hollow is planted with flowers and a glass"}},{"type":"Feature","geometry":{"type":"Point","coordinates":[-6.308176074,52.872004943]},"properties":{"id":"WI01530","smrs":"WI034-018----","county":"WICKLOW","townland":"THREEWELLS","class_code":"HOWE","monument_type":"Ritual site - holy well","first_edit":"","latest_edit":"Not indicated","source_link":"https://maps.archaeology.ie/HistoricEnvironment/?SMRS=WI034-018----","notes":"Situated on the SE side of an open area abutting onto a farmyard wall. Slab-built trough divided into three sections (dims. 5.85m x 2.6m; D 0.8m) fed by a spring, which fills the N trough. Named 'Three Wells' on the 1838 OS 6-inch map. A possible bullaun"}},{"type":"Feature","geometry":{"type":"Point","coordinates":[-6.216640662,52.871177694]},"properties":{"id":"WI01589","smrs":"WI035-030002-","county":"WICKLOW","townland":"TIGRONEY WEST","class_code":"HOWE","monument_type":"Ritual site - holy well","first_edit":"","latest_edit":"'Tobernacla'","source_link":"https://maps.archaeology.ie/HistoricEnvironment/?SMRS=WI035-030002-","notes":"Situated in a steep NE-facing rock outcrop, near a possible church site (WI035-030001-). Natural spring surrounded by boulders; recently tidied and embellished. Marked as 'Tobernacla' on 1838 OS 6-inch map, possibly tobar na cloiche or 'well of the stone"}},{"type":"Feature","geometry":{"type":"Point","coordinates":[-6.146900643,52.872428793]},"properties":{"id":"WI01595","smrs":"WI035-036----","county":"WICKLOW","townland":"BALLINVALLY UPPER (Arklow By., Ennereilly ED)","class_code":"HOWE","monument_type":"Ritual site - holy well","first_edit":"","latest_edit":"'St. Patrick's Well'","source_link":"https://maps.archaeology.ie/HistoricEnvironment/?SMRS=WI035-036----","notes":"Situated on a marked NE-facing slope in pasture. Marked 'St Patrick's Well' on 1838 OS 6-inch map. No visible remains.  The above description is derived from the published 'Archaeological Inventory of County Wicklow' (Dublin: Stationery Office, 1997). In"}},{"type":"Feature","geometry":{"type":"Point","coordinates":[-6.203508286,52.856444732]},"properties":{"id":"WI01602","smrs":"WI035-042----","county":"WICKLOW","townland":"KILMAGIG LOWER","class_code":"HOWE","monument_type":"Ritual site - holy well","first_edit":"","latest_edit":"'Holy Well'","source_link":"https://maps.archaeology.ie/HistoricEnvironment/?SMRS=WI035-042----","notes":"Situated on a short very steep W-facing drop. A small spring which emerges from the slope, not marked or enclosed in any way. Marked 'Holy Well' on 1838 OS 6-inch map.  The above description is derived from the published 'Archaeological Inventory of Coun"}},{"type":"Feature","geometry":{"type":"Point","coordinates":[-6.114846142,52.902459587]},"properties":{"id":"WI01621","smrs":"WI036-003----","county":"WICKLOW","townland":"KILMURRY NORTH (Arklow By.)","class_code":"HOWE","monument_type":"Ritual site - holy well","first_edit":"","latest_edit":"'Lady Well'","source_link":"https://maps.archaeology.ie/HistoricEnvironment/?SMRS=WI036-003----","notes":"Situated on a gentle SW-facing slope in pasture, c. 200m. N of Kilmurry South church and graveyard site (WI036-004----). Natural spring, now piped, marked by some bushes. It is indicated but unnamed on the 1838 OS 6-inch map. According to the OS Letters"}},{"type":"Feature","geometry":{"type":"Point","coordinates":[-6.279307241,52.839841751]},"properties":{"id":"WI01761","smrs":"WI040-001----","county":"WICKLOW","townland":"BALLYCOOG UPPER","class_code":"HOWE","monument_type":"Ritual site - holy well","first_edit":"","latest_edit":"'Tobertanbally'","source_link":"https://maps.archaeology.ie/HistoricEnvironment/?SMRS=WI040-001----","notes":"A spring contained in an irregular stone-lined pool, at the foot of a rocky knoll beside the public road overlooking the Aughrim river. The name probably means 'well of the old town' (an tsean bhaile).  The above description is derived from the published"}},{"type":"Feature","geometry":{"type":"Point","coordinates":[-6.259421513,52.834868626]},"properties":{"id":"WI01779","smrs":"WI040-011001-","county":"WICKLOW","townland":"BALLINTEMPLE","class_code":"HOWE","monument_type":"Ritual site - holy well","first_edit":"","latest_edit":"'Bride's Well (Site of)'","source_link":"https://maps.archaeology.ie/HistoricEnvironment/?SMRS=WI040-011001-","notes":"Situated on the steep bank of a small stream 150m NW of a church site (WI040-011002-). A natural spring with no associated features although its name indicates a dedication to St Brigid.  The above description is derived from the published 'Archaeologica"}},{"type":"Feature","geometry":{"type":"Point","coordinates":[-6.598643154,52.793472269]},"properties":{"id":"WI01862","smrs":"WI042-009002-","county":"WICKLOW","townland":"KILLABEG","class_code":"HOWE","monument_type":"Ritual site - holy well","first_edit":"","latest_edit":"'Chapel Well'","source_link":"https://maps.archaeology.ie/HistoricEnvironment/?SMRS=WI042-009002-","notes":"Situated at the foot of a W/SW-facing slope, 40m SE of the church enclosure (WI042-009001-). Natural spring rising in a slab-lined culvert within a stone-walled embrasure in the roadside.  The above description is derived from the published 'Archaeologic"}},{"type":"Feature","geometry":{"type":"Point","coordinates":[-6.159277869,52.765652531]},"properties":{"id":"WI01963","smrs":"WI045-004----","county":"WICKLOW","townland":"ROCK BIG","class_code":"HOWE","monument_type":"Ritual site - holy well","first_edit":"'St. Ivers Well'","latest_edit":"'St. Iver's Well (Site of)'","source_link":"https://maps.archaeology.ie/HistoricEnvironment/?SMRS=WI045-004----","notes":"Situated on level ground, the well is surrounded by concrete shoring and supplies the nearby farm. When the concrete was put in there were no traces of any features around the well, which may be associated with the church (WI045-010001-) and graveyard (W"}},{"type":"Feature","geometry":{"type":"Point","coordinates":[-6.50553458,52.774943088]},"properties":{"id":"WI01932","smrs":"WI043-013----","county":"WICKLOW","townland":"BALLYRAHEEN","class_code":"HOWE","monument_type":"Ritual site - holy well","first_edit":"","latest_edit":"'Tober Nahan'","source_link":"https://maps.archaeology.ie/HistoricEnvironment/?SMRS=WI043-013----","notes":"Piped spring on the edge of a natural platform, situated on the slope of a stream valley. There are no local traditions, although Price (1958, 355-6) mentions it was formerly the location of a pattern, and that it had a cure for headaches.  The above des"}},{"type":"Feature","geometry":{"type":"Point","coordinates":[-6.558334111,52.765852907]},"properties":{"id":"WI01934","smrs":"WI043-015----","county":"WICKLOW","townland":"CRONELEA","class_code":"HOWE","monument_type":"Ritual site - holy well","first_edit":"","latest_edit":"'St. Martin's Well'","source_link":"https://maps.archaeology.ie/HistoricEnvironment/?SMRS=WI043-015----","notes":"Situated on a S-facing slope overlooking a stream. Natural spring apparently named after St Martin of Tours. There is no local tradition of a pattern, although Price (1958, 356-7) states that rags and medals were left here at one time.  The above descrip"}},{"type":"Feature","geometry":{"type":"Point","coordinates":[-6.399068306,52.792699976]},"properties":{"id":"WI01953","smrs":"WI044-004----","county":"WICKLOW","townland":"KILLAVENY","class_code":"HOWE","monument_type":"Ritual site - holy well","first_edit":"","latest_edit":"'Toberpatrick'","source_link":"https://maps.archaeology.ie/HistoricEnvironment/?SMRS=WI044-004----","notes":"Situated on a gentle NE-facing slope overlooking a stream to the NE. An unenclosed spring; according to the OS Letters (O'Flanagan 1928, 50-51) a pattern was formerly held here.  The above description is derived from the published 'Archaeological Invento"}},{"type":"Feature","geometry":{"type":"Point","coordinates":[-6.233358555,52.781062552]},"properties":{"id":"WI01958","smrs":"WI045-001----","county":"WICKLOW","townland":"JOHNSTOWN HILL","class_code":"HOWE","monument_type":"Ritual site - holy well","first_edit":"","latest_edit":"'Tobergall'","source_link":"https://maps.archaeology.ie/HistoricEnvironment/?SMRS=WI045-001----","notes":"Situated on a NE-facing slope. A small unmarked spring with no associated features. The name probably means 'well of the foreigner' or 'Englishman' (Price 1967, 488).  The above description is derived from the published 'Archaeological Inventory of Count"}},{"type":"Feature","geometry":{"type":"Point","coordinates":[-6.146612915,52.778426499]},"properties":{"id":"WI01967","smrs":"WI045-006----","county":"WICKLOW","townland":"ROCK BIG","class_code":"HOWE","monument_type":"Ritual site - holy well","first_edit":"'Ladys Well'","latest_edit":"'Lady's Well'","source_link":"https://maps.archaeology.ie/HistoricEnvironment/?SMRS=WI045-006----","notes":"Situated in modern Roadstone quarry on a rocky N-facing slope overlooking the sea, to the S of  site of Chapel Hogan (WI045-005----). Site of St. Patrick's Well (WI045-007----) 210m to the SE.  The well has dried up since the quarry opened, and the site"}},{"type":"Feature","geometry":{"type":"Point","coordinates":[-6.144223261,52.777103701]},"properties":{"id":"WI01968","smrs":"WI045-007----","county":"WICKLOW","townland":"ROCK BIG","class_code":"HOWE","monument_type":"Ritual site - holy well","first_edit":"'St. Patrick's Well'","latest_edit":"'St. Patrick's Well'","source_link":"https://maps.archaeology.ie/HistoricEnvironment/?SMRS=WI045-007----","notes":"Situated in modern Roadstone quarry on a rocky E-facing slope overlooking the sea, 210m SE of Lady's Well (WI045-006-----) and 280m SSE of the site of Chapel Hogan (WI045-005----) and graveyard (WI045-005001-). Like the Lady's Well (WI045-006----), this"}},{"type":"Feature","geometry":{"type":"Point","coordinates":[-6.328693095,53.01285899]},"properties":{"id":"WI02585","smrs":"WI023-048----","county":"WICKLOW","townland":"BROCKAGH","class_code":"HOWE","monument_type":"Ritual site - holy well","first_edit":"'St Kevin's Keeve'","latest_edit":"'St Kevin's Keeve'","source_link":"https://maps.archaeology.ie/HistoricEnvironment/?SMRS=WI023-048----","notes":"Holy well marked on all editions of the OS 6-inch maps as 'St. Kevin's Keeve'. Described by Healy (1972, 150) as \u2018St. Kevin's Keeve (bath) is located on the Glendasan River just below the old disused dam.  It is a natural pool approximately four by two"}},{"type":"Feature","geometry":{"type":"Point","coordinates":[-6.133674011,53.089858184]},"properties":{"id":"WI02665","smrs":"WI013-052001-","county":"WICKLOW","townland":"KILMURRY (Newcastle By.)","class_code":"HOWE","monument_type":"Ritual site - holy well","first_edit":"Not indicated","latest_edit":"Indicated","source_link":"https://maps.archaeology.ie/HistoricEnvironment/?SMRS=WI013-052001-","notes":"Known as the 'Blessed Well'. A little pool (diam. 0.4m) which has a concrete beam across its front end, leading to a stream. A small concrete manhole-size covered well is beside the original.  Compiled by: Claire Breen  Date of upload: 07 February 2013"}},{"type":"Feature","geometry":{"type":"Point","coordinates":[-6.140787728,52.947579108]},"properties":{"id":"WI03264","smrs":"WI030-044----","county":"WICKLOW","townland":"KILNAMANAGH MORE","class_code":"HOWE","monument_type":"Ritual site - holy well","first_edit":"","latest_edit":"Indicated","source_link":"https://maps.archaeology.ie/HistoricEnvironment/?SMRS=WI030-044----","notes":"Possible holy well described by Ronan (1928, 150) as at \u2018Kilmanoge (properly, Kill-na-mban-og), i.e., the Church of the Virgins (WI030-035----) is completely erased. And so also is the burying ground.  But the triangular enclosure, about 60 yds. each s"}},{"type":"Feature","geometry":{"type":"Point","coordinates":[-6.248075594,53.000786294]},"properties":{"id":"WI03271","smrs":"WI024-037----","county":"WICKLOW","townland":"TROOPERSTOWN","class_code":"HOWE","monument_type":"Ritual site - holy well","first_edit":"Not indicated","latest_edit":"Outlined","source_link":"https://maps.archaeology.ie/HistoricEnvironment/?SMRS=WI024-037----","notes":"According to Lynch (1994, 639) there is a holy well known as \u2018Fraughan\u2019s Well\u2019 in the townland of Trooperstown that is mentioned in the 1930s Irish Folklore Commission, Schools Manuscript Collection (IFC S  918: 155; IFC S 1127: 48).  The folklore"}},{"type":"Feature","geometry":{"type":"Point","coordinates":[-6.367882847,52.858467847]},"properties":{"id":"WI03278","smrs":"WI034-035----","county":"WICKLOW","townland":"RODDENAGH","class_code":"HOWE","monument_type":"Ritual site - holy well","first_edit":"'Heffernan's Well, Old Thorn'","latest_edit":"'Heffernan's Well, Old Thorn'","source_link":"https://maps.archaeology.ie/HistoricEnvironment/?SMRS=WI034-035----","notes":"Holy well and thorn bush located in area of coniferous plantation.  According to Lynch (1994, 639) there is a holy well known as \u2018St Bride\u2019s Well\u2019 in the townland of Roddenagh that is mentioned in the 1930s Irish Folklore Commission, Schools Manusc"}},{"type":"Feature","geometry":{"type":"Point","coordinates":[-6.494775783,53.101094712]},"properties":{"id":"WI03302","smrs":"WI010-054002-","county":"WICKLOW","townland":"BALLYKNOCKAN (Talbotstown Lower By.)","class_code":"HOWE","monument_type":"Ritual site - holy well","first_edit":"","latest_edit":"","source_link":"https://maps.archaeology.ie/HistoricEnvironment/?SMRS=WI010-054002-","notes":"According to Lynch (1994, 643) there is a holy well in the townland of Ballyknockan that is mentioned in the 1930s Irish Folklore Commission, Schools Manuscript Collection (IFC S  917: 22; IFC 654: 95).  A small stone cross (WI010-054----) stands beside"}}]}