{"type":"FeatureCollection","features":[{"type":"Feature","geometry":{"type":"Point","coordinates":[-6.709666,52.943946]},"properties":{"id":"WI01238","smrs":"WI027-024001-","name":"Baltinglass Abbey, County Wicklow","county":"WICKLOW","locality":"BALTINGLASS EAST","monument_class":"Religious house - Cistercian monks","source_link":"https://heritagedata.maps.arcgis.com/apps/webappviewer/index.html?id=0c9eb9575b544081b0d296436d8f60f8&query=18a4b61b268-layer-9%2CSMRS%2CWI027-024001-","external_link":"https://www.discoverireland.ie/wicklow/baltinglass-abbey","notes":"Baltinglass Abbey stands on the banks of the River Slaney on the outskirts of the small town of Baltinglass. The abbey was founded in 1148 by the king of Leinster, Diarmait MacMurrough, as a daughter house of the Cistercian Abbey at Mellifont, Co. Louth. What survives at Baltinglass is essentially the church of the abbey. The chancel and the transept at the east end were probably constructed in the early 1150s, whereas the aisled nave with the wonderful piers and arches was probably constructed in the 1160s. The various domestic buildings and the cloister that once formed part of the complex have disappeared. The tower within the building was constructed in the early 19th century. There are many interesting decorative carvings, and the sculptors who carved them appear to have been also responsible for the carvings at another Cistercian abbey at Jerpoint, Co. Kilkenny.  Please note that many of these monuments may be on private land and may not be publicly accessible. When setting out to visit monuments please ensure that you wear appropriate footwear and clothing.  Access to monuments without Visitor Services may be across uneven ground which may not be suitable for everyone and, in particular, wheelchair users."}},{"type":"Feature","geometry":{"type":"Point","coordinates":[-6.620434,52.767904]},"properties":{"id":"WI01878","smrs":"WI042-019001-","name":"Aghowle Church, County Wicklow","county":"WICKLOW","locality":"AGHOWLE LOWER (Shillelagh By.)","monument_class":"Church","source_link":"https://heritagedata.maps.arcgis.com/apps/webappviewer/index.html?id=0c9eb9575b544081b0d296436d8f60f8&query=18a4b61b268-layer-9%2CSMRS%2CWI042-019001-","external_link":"https://visitwicklow.ie/listing/aghowle-church/","notes":"The ancient church at Aghowle is associated with St Finnian (who died in 549), and he is supposed to have established a church at Aghowle before founding his more famous site at Clonard, Co. Meath.  The name Aghowle derives from the Irish Achadh Abhall, meaning \u2018field of the apple tree\u2019.  According to the Life of St Finnian, the Leinster king Muiredach mac Aengusa gave him a field where an apple tree stood, hence the name by which the church was subsequently known.  At the site today there are the remains of a large church built about the middle of the 12th century. The door of the church is in the Romanesque tradition, but its style is unusual and echoes the form of doorways found in earlier Irish churches. There are also two little Romanesque windows at the east end of the church. Near the door of the church stands a granite high cross known as St Finden\u2019s Cross. It is older than the present church ruins and was probably carved in the 10th century. Under the cross is a crude baptismal font, which may be one of the oldest examples in the country.   Please note that many of these monuments may be on private land and may not be publicly accessible. When setting out to visit monuments please ensure that you wear appropriate footwear and clothing.  Access to monuments without Visitor Services may be across uneven ground which may not be suitable for everyone and, in particular, wheelchair users."}},{"type":"Feature","geometry":{"type":"Point","coordinates":[-6.327291,53.010583]},"properties":{"id":"WI02195","smrs":"WI023-008014-","name":"Glendalough, County Wicklow","county":"WICKLOW","locality":"SEVENCHURCHES OR CAMADERRY","monument_class":"Graveyard","source_link":"https://heritagedata.maps.arcgis.com/apps/webappviewer/index.html?id=0c9eb9575b544081b0d296436d8f60f8&query=18a4b61b268-layer-9%2CSMRS%2CWI023-008014-","external_link":"https://heritageireland.ie/visit/places-to-visit/glendalough-visitor-centre/","notes":"This early Christian ecclesiastical settlement was founded by St. Kevin in the 6th century. Set in a glaciated valley with two lakes, the monastic remains include a superb round tower, stone churches and decorated crosses. The Visitor Centre has an interesting exhibition and an audio-visual show. French, Italian and Spanish guided tours are available all year by advance booking. The Visitor Centre is fully accessible for visitors with disabilities. Access to the graveyard is very difficult for wheelchair users.  Please note that many of these monuments may be on private land and may not be publicly accessible. When setting out to visit monuments please ensure that you wear appropriate footwear and clothing.  Access to monuments without Visitor Services may be across uneven ground which may not be suitable for everyone and, in particular, wheelchair users."}},{"type":"Feature","geometry":{"type":"Point","coordinates":[-6.564511,52.962091]},"properties":{"id":"WI02888","smrs":"WI028-030----","name":"The Dwyer McAllister Cottage, County Wicklow","county":"WICKLOW","locality":"DERRYNAMUCK","monument_class":"House - 18th/19th century","source_link":"https://heritagedata.maps.arcgis.com/apps/webappviewer/index.html?id=0c9eb9575b544081b0d296436d8f60f8&query=18a4b61b268-layer-9%2CSMRS%2CWI028-030----","external_link":"https://heritageireland.ie/places-to-visit/dwyer-mcallister-cottage/","notes":"The cottage nestles in the shade of Kaedeen mountain at the top of a grassy lane off the Donard to Rathdangan road in Co. Wicklow. It is a fine example of a traditional thatched cottage built with local stone and whitewashed inside and out. It was from this cottage, in the Winter of 1799, that the famed rebel, Michael Dwyer, fought the encircling British groups and finally made good his escape over the snow covered mountains. The cottage was later destroyed by fire and lay in ruins for almost 150 years. It was restored to its original form as a monument in the late 1940's and again extensively repaired and re-roofed in 1992.  Please note that many of these monuments may be on private land and may not be publicly accessible. When setting out to visit monuments please ensure that you wear appropriate footwear and clothing.  Access to monuments without Visitor Services may be across uneven ground which may not be suitable for everyone and, in particular, wheelchair users."}}]}